{
  "type": "FeatureCollection",
  "features": [
    {
      "type": "Feature",
      "properties": {
        "norad_id": 28890,
        "name": "BEIJING 1",
        "group": "dmc",
        "lat": -17.257484966868773,
        "lon": -58.816223514272366,
        "alt_km": 686.0939660382537,
        "timestamp": "2025-12-22T05:49:03.149175+00:00",
        "meta_object_name": "BEIJING 1",
        "meta_object_id": "2005-043A",
        "meta_epoch": "2025-12-21T20:42:54.243648",
        "meta_mean_motion": 14.63374054,
        "meta_eccentricity": 0.0015754,
        "meta_inclination": 98.266,
        "meta_ra_of_asc_node": 123.3921,
        "meta_arg_of_pericenter": 114.2989,
        "meta_mean_anomaly": 245.986,
        "meta_ephemeris_type": 0,
        "meta_classification_type": "U",
        "meta_norad_cat_id": 28890,
        "meta_element_set_no": 999,
        "meta_rev_at_epoch": 7471,
        "meta_bstar": 7.5358e-05,
        "meta_mean_motion_dot": 3.41e-06,
        "meta_mean_motion_ddot": 0,
        "tle_line1": "1 28890U 05043A   25355.86312782  .00000341  00000+0  75358-4 0  9995",
        "tle_line2": "2 28890  98.2660 123.3921 0015754 114.2989 245.9860 14.63374054 74717"
      },
      "geometry": {
        "type": "Point",
        "coordinates": [
          -58.816223514272366,
          -17.257484966868773
        ]
      }
    },
    {
      "type": "Feature",
      "properties": {
        "norad_id": 33320,
        "name": "HUANJING 1A (HJ-1A)",
        "group": "dmc",
        "lat": -8.608371112470326,
        "lon": 162.97733986286133,
        "alt_km": 636.2054364677297,
        "timestamp": "2025-12-22T05:49:03.149201+00:00",
        "meta_object_name": "HUANJING 1A (HJ-1A)",
        "meta_object_id": "2008-041A",
        "meta_epoch": "2025-12-21T20:52:32.784960",
        "meta_mean_motion": 14.83420832,
        "meta_eccentricity": 0.0019456,
        "meta_inclination": 97.6539,
        "meta_ra_of_asc_node": 343.7868,
        "meta_arg_of_pericenter": 5.5794,
        "meta_mean_anomaly": 354.5633,
        "meta_ephemeris_type": 0,
        "meta_classification_type": "U",
        "meta_norad_cat_id": 33320,
        "meta_element_set_no": 999,
        "meta_rev_at_epoch": 93211,
        "meta_bstar": 0.0001694,
        "meta_mean_motion_dot": 1.344e-05,
        "meta_mean_motion_ddot": 0,
        "tle_line1": "1 33320U 08041A   25355.86982390  .00001344  00000+0  16940-3 0  9993",
        "tle_line2": "2 33320  97.6539 343.7868 0019456   5.5794 354.5633 14.83420832932116"
      },
      "geometry": {
        "type": "Point",
        "coordinates": [
          162.97733986286133,
          -8.608371112470326
        ]
      }
    },
    {
      "type": "Feature",
      "properties": {
        "norad_id": 33321,
        "name": "HUANJING 1B (HJ-1B)",
        "group": "dmc",
        "lat": 29.498883846770592,
        "lon": -16.539031655213353,
        "alt_km": 593.355655741092,
        "timestamp": "2025-12-22T05:49:03.149216+00:00",
        "meta_object_name": "HUANJING 1B (HJ-1B)",
        "meta_object_id": "2008-041B",
        "meta_epoch": "2025-12-21T19:58:02.900928",
        "meta_mean_motion": 14.82842744,
        "meta_eccentricity": 0.0037984,
        "meta_inclination": 97.6397,
        "meta_ra_of_asc_node": 347.4238,
        "meta_arg_of_pericenter": 47.0055,
        "meta_mean_anomaly": 313.4332,
        "meta_ephemeris_type": 0,
        "meta_classification_type": "U",
        "meta_norad_cat_id": 33321,
        "meta_element_set_no": 999,
        "meta_rev_at_epoch": 93212,
        "meta_bstar": 9.5249e-05,
        "meta_mean_motion_dot": 7.29e-06,
        "meta_mean_motion_ddot": 0,
        "tle_line1": "1 33321U 08041B   25355.83197802  .00000729  00000+0  95249-4 0  9993",
        "tle_line2": "2 33321  97.6397 347.4238 0037984  47.0055 313.4332 14.82842744932128"
      },
      "geometry": {
        "type": "Point",
        "coordinates": [
          -16.539031655213353,
          29.498883846770592
        ]
      }
    },
    {
      "type": "Feature",
      "properties": {
        "norad_id": 33446,
        "name": "YAOGAN-4",
        "group": "dmc",
        "lat": -61.825137479332696,
        "lon": -58.68794839709119,
        "alt_km": 618.8970022928643,
        "timestamp": "2025-12-22T05:49:03.149228+00:00",
        "meta_object_name": "YAOGAN-4",
        "meta_object_id": "2008-061A",
        "meta_epoch": "2025-12-21T18:45:45.373824",
        "meta_mean_motion": 14.82706695,
        "meta_eccentricity": 0.0013067,
        "meta_inclination": 97.9195,
        "meta_ra_of_asc_node": 285.7927,
        "meta_arg_of_pericenter": 291.438,
        "meta_mean_anomaly": 68.5439,
        "meta_ephemeris_type": 0,
        "meta_classification_type": "U",
        "meta_norad_cat_id": 33446,
        "meta_element_set_no": 999,
        "meta_rev_at_epoch": 91937,
        "meta_bstar": 0.0001402,
        "meta_mean_motion_dot": 1.079e-05,
        "meta_mean_motion_ddot": 0,
        "tle_line1": "1 33446U 08061A   25355.78177516  .00001079  00000+0  14020-3 0  9993",
        "tle_line2": "2 33446  97.9195 285.7927 0013067 291.4380  68.5439 14.82706695919378"
      },
      "geometry": {
        "type": "Point",
        "coordinates": [
          -58.68794839709119,
          -61.825137479332696
        ]
      }
    },
    {
      "type": "Feature",
      "properties": {
        "norad_id": 35681,
        "name": "DEIMOS-1",
        "group": "dmc",
        "lat": 17.161013107945546,
        "lon": -21.1977494750735,
        "alt_km": 646.0799645225534,
        "timestamp": "2025-12-22T05:49:03.149239+00:00",
        "meta_object_name": "DEIMOS-1",
        "meta_object_id": "2009-041A",
        "meta_epoch": "2025-12-21T17:41:09.848256",
        "meta_mean_motion": 14.74964029,
        "meta_eccentricity": 0.0002574,
        "meta_inclination": 97.7148,
        "meta_ra_of_asc_node": 155.9213,
        "meta_arg_of_pericenter": 65.428,
        "meta_mean_anomaly": 294.7198,
        "meta_ephemeris_type": 0,
        "meta_classification_type": "U",
        "meta_norad_cat_id": 35681,
        "meta_element_set_no": 999,
        "meta_rev_at_epoch": 88072,
        "meta_bstar": 4.6401e-05,
        "meta_mean_motion_dot": 2.65e-06,
        "meta_mean_motion_ddot": 0,
        "tle_line1": "1 35681U 09041A   25355.73691954  .00000265  00000+0  46401-4 0  9992",
        "tle_line2": "2 35681  97.7148 155.9213 0002574  65.4280 294.7198 14.74964029880721"
      },
      "geometry": {
        "type": "Point",
        "coordinates": [
          -21.1977494750735,
          17.161013107945546
        ]
      }
    },
    {
      "type": "Feature",
      "properties": {
        "norad_id": 35683,
        "name": "UK-DMC 2",
        "group": "dmc",
        "lat": -20.606632946328787,
        "lon": -52.09893932575821,
        "alt_km": 648.7424800633207,
        "timestamp": "2025-12-22T05:49:03.149250+00:00",
        "meta_object_name": "UK-DMC 2",
        "meta_object_id": "2009-041C",
        "meta_epoch": "2025-12-21T20:46:26.334912",
        "meta_mean_motion": 14.75638624,
        "meta_eccentricity": 0.0001544,
        "meta_inclination": 97.8566,
        "meta_ra_of_asc_node": 130.5111,
        "meta_arg_of_pericenter": 92.6973,
        "meta_mean_anomaly": 267.4413,
        "meta_ephemeris_type": 0,
        "meta_classification_type": "U",
        "meta_norad_cat_id": 35683,
        "meta_element_set_no": 999,
        "meta_rev_at_epoch": 88041,
        "meta_bstar": 9.375e-05,
        "meta_mean_motion_dot": 5.91e-06,
        "meta_mean_motion_ddot": 0,
        "tle_line1": "1 35683U 09041C   25355.86558258  .00000591  00000+0  93750-4 0  9998",
        "tle_line2": "2 35683  97.8566 130.5111 0001544  92.6973 267.4413 14.75638624880414"
      },
      "geometry": {
        "type": "Point",
        "coordinates": [
          -52.09893932575821,
          -20.606632946328787
        ]
      }
    },
    {
      "type": "Feature",
      "properties": {
        "norad_id": 40715,
        "name": "DMC3-FM1",
        "group": "dmc",
        "lat": -44.38327894373706,
        "lon": 35.51053796014965,
        "alt_km": 617.3552336152388,
        "timestamp": "2025-12-22T05:49:03.149261+00:00",
        "meta_object_name": "DMC3-FM1",
        "meta_object_id": "2015-032A",
        "meta_epoch": "2025-12-21T20:43:29.600256",
        "meta_mean_motion": 14.85455676,
        "meta_eccentricity": 0.000409,
        "meta_inclination": 97.6687,
        "meta_ra_of_asc_node": 222.7233,
        "meta_arg_of_pericenter": 283.7264,
        "meta_mean_anomaly": 76.3497,
        "meta_ephemeris_type": 0,
        "meta_classification_type": "U",
        "meta_norad_cat_id": 40715,
        "meta_element_set_no": 999,
        "meta_rev_at_epoch": 56358,
        "meta_bstar": 0.00013487,
        "meta_mean_motion_dot": 1.112e-05,
        "meta_mean_motion_ddot": 0,
        "tle_line1": "1 40715U 15032A   25355.86353704  .00001112  00000+0  13487-3 0  9994",
        "tle_line2": "2 40715  97.6687 222.7233 0004090 283.7264  76.3497 14.85455676563582"
      },
      "geometry": {
        "type": "Point",
        "coordinates": [
          35.51053796014965,
          -44.38327894373706
        ]
      }
    },
    {
      "type": "Feature",
      "properties": {
        "norad_id": 40716,
        "name": "DMC3-FM2",
        "group": "dmc",
        "lat": 73.44123743258683,
        "lon": 71.50883003980978,
        "alt_km": 608.362380666018,
        "timestamp": "2025-12-22T05:49:03.149271+00:00",
        "meta_object_name": "DMC3-FM2",
        "meta_object_id": "2015-032B",
        "meta_epoch": "2025-12-21T21:15:52.109856",
        "meta_mean_motion": 14.85458036,
        "meta_eccentricity": 0.0004653,
        "meta_inclination": 97.6746,
        "meta_ra_of_asc_node": 224.1955,
        "meta_arg_of_pericenter": 290.7459,
        "meta_mean_anomaly": 69.3258,
        "meta_ephemeris_type": 0,
        "meta_classification_type": "U",
        "meta_norad_cat_id": 40716,
        "meta_element_set_no": 999,
        "meta_rev_at_epoch": 56358,
        "meta_bstar": 0.00010863,
        "meta_mean_motion_dot": 8.85e-06,
        "meta_mean_motion_ddot": 0,
        "tle_line1": "1 40716U 15032B   25355.88601979  .00000885  00000+0  10863-3 0  9998",
        "tle_line2": "2 40716  97.6746 224.1955 0004653 290.7459  69.3258 14.85458036563585"
      },
      "geometry": {
        "type": "Point",
        "coordinates": [
          71.50883003980978,
          73.44123743258683
        ]
      }
    },
    {
      "type": "Feature",
      "properties": {
        "norad_id": 40717,
        "name": "DMC3-FM3",
        "group": "dmc",
        "lat": -11.303668128943125,
        "lon": -132.27605635974186,
        "alt_km": 615.058830041401,
        "timestamp": "2025-12-22T05:49:03.149281+00:00",
        "meta_object_name": "DMC3-FM3",
        "meta_object_id": "2015-032C",
        "meta_epoch": "2025-12-21T21:47:07.323360",
        "meta_mean_motion": 14.8544082,
        "meta_eccentricity": 0.0004084,
        "meta_inclination": 97.68,
        "meta_ra_of_asc_node": 225.8555,
        "meta_arg_of_pericenter": 292.0652,
        "meta_mean_anomaly": 68.0129,
        "meta_ephemeris_type": 0,
        "meta_classification_type": "U",
        "meta_norad_cat_id": 40717,
        "meta_element_set_no": 999,
        "meta_rev_at_epoch": 56359,
        "meta_bstar": 1.8592e-05,
        "meta_mean_motion_dot": 1.09e-06,
        "meta_mean_motion_ddot": 0,
        "tle_line1": "1 40717U 15032C   25355.90772365  .00000109  00000+0  18592-4 0  9997",
        "tle_line2": "2 40717  97.6800 225.8555 0004084 292.0652  68.0129 14.85440820563595"
      },
      "geometry": {
        "type": "Point",
        "coordinates": [
          -132.27605635974186,
          -11.303668128943125
        ]
      }
    }
  ]
}